[{"OBJECT_NAME":"HIBARI","OBJECT_ID":"2021-102F","EPOCH":"2026-03-09T16:55:51.090816","MEAN_MOTION":15.29554512,"ECCENTRICITY":0.00120742,"INCLINATION":97.3381,"RA_OF_ASC_NODE":115.826,"ARG_OF_PERICENTER":186.5211,"MEAN_ANOMALY":173.5875,"EPHEMERIS_TYPE":0,"CLASSIFICATION_TYPE":"U","NORAD_CAT_ID":49400,"ELEMENT_SET_NO":999,"REV_AT_EPOCH":23897,"BSTAR":0.00042758039,"MEAN_MOTION_DOT":0.00012206,"MEAN_MOTION_DDOT":0},{"OBJECT_NAME":"STARLINK-31053","OBJECT_ID":"2023-192U","EPOCH":"2026-03-09T09:03:19.850976","MEAN_MOTION":15.3019163,"ECCENTRICITY":0.00014658,"INCLINATION":53.1606,"RA_OF_ASC_NODE":64.4627,"ARG_OF_PERICENTER":95.422,"MEAN_ANOMALY":264.6948,"EPHEMERIS_TYPE":0,"CLASSIFICATION_TYPE":"U","NORAD_CAT_ID":58549,"ELEMENT_SET_NO":999,"REV_AT_EPOCH":12593,"BSTAR":9.383993e-6,"MEAN_MOTION_DOT":-8.1e-7,"MEAN_MOTION_DDOT":0}]
